COSMOS 2251 DEB         
1 34333U 93036PF  17345.84629289  .00009513  00000-0  58932-3 0  9993
2 34333  74.0391 250.0220 0028153 324.9904  98.3894 15.09539051472869
